EUTELSAT 65 WEST A      
1 41382U 16014A   26115.91069284 -.00000290  00000+0  00000+0 0  9994
2 41382   0.0584  28.7157 0002225 355.6626  92.1917  1.00273042 37009
EUTELSAT 117 WEST B     
1 41589U 16038B   26115.90037946 -.00000025  00000+0  00000+0 0  9994
2 41589   0.0060 101.7562 0000380 194.5803 124.7207  1.00271646 36131
EUTELSAT 172B           
1 42741U 17029B   26115.88633940 -.00000020  00000+0  00000+0 0  9994
2 42741   0.0163 181.2179 0000187  82.9083  80.8376  1.00270829 33215
EUTELSAT 7C             
1 44334U 19034B   26115.21192747  .00000034  00000+0  00000+0 0  9998
2 44334   0.0745 180.9633 0003250 194.8636 280.6966  1.00270946  6308
EUTELSAT 5 WEST B       
1 44624U 19067A   26115.92265288 -.00000056  00000+0  00000+0 0  9990
2 44624   0.0689   8.7741 0003140  25.4592 146.8476  1.00271275 23913
EUTELSAT KONNECT        
1 45027U 20005B   26115.21201412  .00000035  00000+0  00000+0 0  9999
2 45027   0.0706  89.5744 0002048 205.8484   1.3404  1.00270536 23804
EUTELSAT QUANTUM        
1 49056U 21069B   26115.95470713  .00000112  00000+0  00000+0 0  9995
2 49056   0.0236  19.3322 0002362  12.4452 213.5672  1.00273130 17403
EUTELSAT KONNECT VHTS   
1 53765U 22110A   26115.92412622  .00000003  00000+0  00000+0 0  9996
2 53765   0.0628  92.5586 0002857 271.4565 185.2984  1.00270488  6318
EUTELSAT HOTBIRD 13F    
1 54048U 22134A   26115.56969922  .00000073  00000+0  00000+0 0  9994
2 54048   0.0494 288.5578 0001950  67.6195  75.4991  1.00271935 12840
EUTELSAT HOTBIRD 13G    
1 54225U 22146A   26114.78537410  .00000073  00000+0  00000+0 0  9990
2 54225   0.0370 232.3068 0002019 313.7745 322.4605  1.00272110  6930
EUTELSAT 10B            
1 54259U 22157A   26114.71342745  .00000054  00000+0  00000+0 0  9996
2 54259   0.0617  90.9525 0000772   9.4867  19.1199  1.00271930 12490
EUTELSAT 36D            
1 59346U 24059A   26114.64726094  .00000141  00000+0  00000+0 0  9993
2 59346   0.0165 240.1665 0000198  56.5772 184.7886  1.00271786  7613
